{"type": "FeatureCollection", "features": [ {"type": "Feature", "properties": {"norad_id": 41469, "name": "IRNSS-1G", "group": "gnss", "lat": -1.624419875935025, "lon": -58.24181378531584, "alt_km": 35791.9569788856, "timestamp": "2025-12-16T05:49:09.457156+00:00", "meta": {"OBJECT_NAME": "IRNSS-1G", "OBJECT_ID": "2016-027A", "EPOCH": "2025-12-15T19:08:21.090912", "MEAN_MOTION": 1.00278706, "ECCENTRICITY": 0.00025808, "INCLINATION": 4.7414, "RA_OF_ASC_NODE": 102.0187, "ARG_OF_PERICENTER": 333.3195, "MEAN_ANOMALY": 65.8557, "EPHEMERIS_TYPE": 0, "CLASSIFICATION_TYPE": "U", "NORAD_CAT_ID": 41469, "ELEMENT_SET_NO": 999, "REV_AT_EPOCH": 3534, "BSTAR": 0, "MEAN_MOTION_DOT": -3.14e-06, "MEAN_MOTION_DDOT": 0}, "tle": {"line1": "1 41469U 16027A   25349.79746633 -.00000314  00000+0  00000+0 0  9995", "line2": "2 41469   4.7414 102.0187 0002580 333.3195  65.8557  1.00278706 35349"}}, "geometry": {"type": "Point", "coordinates": [-58.24181378531584, -1.624419875935025]}}, {"type": "Feature", "properties": {"norad_id": 41549, "name": "GSAT0211 (GALILEO 14)", "group": "gnss", "lat": -53.28807536055603, "lon": 157.75880578137435, "alt_km": 23228.95547581356, "timestamp": "2025-12-16T05:49:09.457168+00:00", "meta": {"OBJECT_NAME": "GSAT0211 (GALILEO 14)", "OBJECT_ID": "2016-030A", "EPOCH": "2025-12-14T00:32:28.498848", "MEAN_MOTION": 1.70473201, "ECCENTRICITY": 0.000407, "INCLINATION": 55.1518, "RA_OF_ASC_NODE": 226.7881, "ARG_OF_PERICENTER": 16.5595, "MEAN_ANOMALY": 343.5367, "EPHEMERIS_TYPE": 0, "CLASSIFICATION_TYPE": "U", "NORAD_CAT_ID": 41549, "ELEMENT_SET_NO": 999, "REV_AT_EPOCH": 5951, "BSTAR": 0, "MEAN_MOTION_DOT": 2.8e-07, "MEAN_MOTION_DDOT": 0}, "tle": {"line1": "1 41549U 16030A   25348.02255207  .00000028  00000+0  00000+0 0  9996", "line2": "2 41549  55.1518 226.7881 0004070  16.5595 343.5367  1.70473201 59512"}}, "geometry": {"type": "Point", "coordinates": [157.75880578137435, -53.28807536055603]}}, {"type": "Feature", "properties": {"norad_id": 41550, "name": "GSAT0210 (GALILEO 13)", "group": "gnss", "lat": 42.59463081136818, "lon": 6.945247022562646, "alt_km": 23218.13713501331, "timestamp": "2025-12-16T05:49:09.457179+00:00", "meta": {"OBJECT_NAME": "GSAT0210 (GALILEO 13)", "OBJECT_ID": "2016-030B", "EPOCH": "2025-12-14T06:43:07.791456", "MEAN_MOTION": 1.70473679, "ECCENTRICITY": 9.538e-05, "INCLINATION": 55.1512, "RA_OF_ASC_NODE": 226.7791, "ARG_OF_PERICENTER": 236.3511, "MEAN_ANOMALY": 123.7237, "EPHEMERIS_TYPE": 0, "CLASSIFICATION_TYPE": "U", "NORAD_CAT_ID": 41550, "ELEMENT_SET_NO": 999, "REV_AT_EPOCH": 5951, "BSTAR": 0, "MEAN_MOTION_DOT": 3e-07, "MEAN_MOTION_DDOT": 0}, "tle": {"line1": "1 41550U 16030B   25348.27995129  .00000030  00000+0  00000+0 0  9992", "line2": "2 41550  55.1512 226.7791 0000953 236.3511 123.7237  1.70473679 59517"}}, "geometry": {"type": "Point", "coordinates": [6.945247022562646, 42.59463081136818]}}, {"type": "Feature", "properties": {"norad_id": 41586, "name": "BEIDOU-2 G7 (C03)", "group": "gnss", "lat": -1.0334400104315506, "lon": -77.1857402518085, "alt_km": 35803.6651862921, "timestamp": "2025-12-16T05:49:09.457190+00:00", "meta": {"OBJECT_NAME": "BEIDOU-2 G7 (C03)", "OBJECT_ID": "2016-037A", "EPOCH": "2025-12-15T22:28:29.009568", "MEAN_MOTION": 1.00273736, "ECCENTRICITY": 0.00049698, "INCLINATION": 1.7648, "RA_OF_ASC_NODE": 67.8002, "ARG_OF_PERICENTER": 3.4477, "MEAN_ANOMALY": 101.1456, "EPHEMERIS_TYPE": 0, "CLASSIFICATION_TYPE": "U", "NORAD_CAT_ID": 41586, "ELEMENT_SET_NO": 999, "REV_AT_EPOCH": 505, "BSTAR": 0, "MEAN_MOTION_DOT": -3.32e-06, "MEAN_MOTION_DDOT": 0}, "tle": {"line1": "1 41586U 16037A   25349.93644687 -.00000332  00000+0  00000+0 0  9998", "line2": "2 41586   1.7648  67.8002 0004969   3.4477 101.1456  1.00273736  5055"}}, "geometry": {"type": "Point", "coordinates": [-77.1857402518085, -1.0334400104315506]}}, {"type": "Feature", "properties": {"norad_id": 41589, "name": "EUTELSAT 117 WEST B (WAAS/PRN 131)", "group": "gnss", "lat": -0.012524970107474831, "lon": 55.40931551501049, "alt_km": 35787.08009551182, "timestamp": "2025-12-16T05:49:09.457204+00:00", "meta": {"OBJECT_NAME": "EUTELSAT 117 WEST B (WAAS/PRN 131)", "OBJECT_ID": "2016-038B", "EPOCH": "2025-12-14T23:08:05.366400", "MEAN_MOTION": 1.00269355, "ECCENTRICITY": 1.202e-05, "INCLINATION": 0.0103, "RA_OF_ASC_NODE": 155.4943, "ARG_OF_PERICENTER": 36.5325, "MEAN_ANOMALY": 121.8783, "EPHEMERIS_TYPE": 0, "CLASSIFICATION_TYPE": "U", "NORAD_CAT_ID": 41589, "ELEMENT_SET_NO": 999, "REV_AT_EPOCH": 3481, "BSTAR": 0, "MEAN_MOTION_DOT": 9e-08, "MEAN_MOTION_DDOT": 0}, "tle": {"line1": "1 41589U 16038B   25348.96395100  .00000009  00000+0  00000+0 0  9997", "line2": "2 41589   0.0103 155.4943 0000120  36.5325 121.8783  1.00269355 34818"}}, "geometry": {"type": "Point", "coordinates": [55.40931551501049, -0.012524970107474831]}}, {"type": "Feature", "properties": {"norad_id": 41859, "name": "GSAT0207 (GALILEO 15)", "group": "gnss", "lat": -36.538849619459725, "lon": 75.38831286876915, "alt_km": 23220.019486402613, "timestamp": "2025-12-16T05:49:09.457216+00:00", "meta": {"OBJECT_NAME": "GSAT0207 (GALILEO 15)", "OBJECT_ID": "2016-069A", "EPOCH": "2025-12-13T09:14:27.730752", "MEAN_MOTION": 1.70474447, "ECCENTRICITY": 0.00022423, "INCLINATION": 55.3826, "RA_OF_ASC_NODE": 106.2323, "ARG_OF_PERICENTER": 321.9482, "MEAN_ANOMALY": 38.0041, "EPHEMERIS_TYPE": 0, "CLASSIFICATION_TYPE": "U", "NORAD_CAT_ID": 41859, "ELEMENT_SET_NO": 999, "REV_AT_EPOCH": 5623, "BSTAR": 0, "MEAN_MOTION_DOT": 0, "MEAN_MOTION_DDOT": 0}, "tle": {"line1": "1 41859U 16069A   25347.38504318  .00000000  00000+0  00000+0 0  9990", "line2": "2 41859  55.3826 106.2323 0002242 321.9482  38.0041  1.70474447 56234"}}, "geometry": {"type": "Point", "coordinates": [75.38831286876915, -36.538849619459725]}}, {"type": "Feature", "properties": {"norad_id": 41860, "name": "GSAT0212 (GALILEO 16)", "group": "gnss", "lat": 34.52438130375168, "lon": 134.47658872677937, "alt_km": 23211.922264998302, "timestamp": "2025-12-16T05:49:09.457227+00:00", "meta": {"OBJECT_NAME": "GSAT0212 (GALILEO 16)", "OBJECT_ID": "2016-069B", "EPOCH": "2025-12-14T09:53:04.896672", "MEAN_MOTION": 1.70474682, "ECCENTRICITY": 0.00021233, "INCLINATION": 55.3808, "RA_OF_ASC_NODE": 106.1993, "ARG_OF_PERICENTER": 25.6121, "MEAN_ANOMALY": 334.3636, "EPHEMERIS_TYPE": 0, "CLASSIFICATION_TYPE": "U", "NORAD_CAT_ID": 41860, "ELEMENT_SET_NO": 999, "REV_AT_EPOCH": 5650, "BSTAR": 0, "MEAN_MOTION_DOT": -4e-08, "MEAN_MOTION_DDOT": 0}, "tle": {"line1": "1 41860U 16069B   25348.41186223 -.00000004  00000+0  00000+0 0  9993", "line2": "2 41860  55.3808 106.1993 0002123  25.6121 334.3636  1.70474682 56507"}}, "geometry": {"type": "Point", "coordinates": [134.47658872677937, 34.52438130375168]}}, {"type": "Feature", "properties": {"norad_id": 41861, "name": "GSAT0213 (GALILEO 17)", "group": "gnss", "lat": 1.7187961687023143, "lon": -75.04340470133818, "alt_km": 23224.023963094955, "timestamp": "2025-12-16T05:49:09.457277+00:00", "meta": {"OBJECT_NAME": "GSAT0213 (GALILEO 17)", "OBJECT_ID": "2016-069C", "EPOCH": "2025-12-14T04:37:41.330208", "MEAN_MOTION": 1.70474935, "ECCENTRICITY": 0.00024236, "INCLINATION": 55.3829, "RA_OF_ASC_NODE": 106.2129, "ARG_OF_PERICENTER": 283.222, "MEAN_ANOMALY": 76.7169, "EPHEMERIS_TYPE": 0, "CLASSIFICATION_TYPE": "U", "NORAD_CAT_ID": 41861, "ELEMENT_SET_NO": 999, "REV_AT_EPOCH": 5636, "BSTAR": 0, "MEAN_MOTION_DOT": -4e-08, "MEAN_MOTION_DDOT": 0}, "tle": {"line1": "1 41861U 16069C   25348.19283947 -.00000004  00000+0  00000+0 0  9990", "line2": "2 41861  55.3829 106.2129 0002423 283.2220  76.7169  1.70474935 56361"}}, "geometry": {"type": "Point", "coordinates": [-75.04340470133818, 1.7187961687023143]}}, {"type": "Feature", "properties": {"norad_id": 41862, "name": "GSAT0214 (GALILEO 18)", "group": "gnss", "lat": 55.35573168974822, "lon": -166.81127307236773, "alt_km": 23219.60301912894, "timestamp": "2025-12-16T05:49:09.457292+00:00", "meta": {"OBJECT_NAME": "GSAT0214 (GALILEO 18)", "OBJECT_ID": "2016-069D", "EPOCH": "2025-12-14T22:12:36.299232", "MEAN_MOTION": 1.70474813, "ECCENTRICITY": 0.00014239, "INCLINATION": 55.3815, "RA_OF_ASC_NODE": 106.1855, "ARG_OF_PERICENTER": 290.4821, "MEAN_ANOMALY": 69.4663, "EPHEMERIS_TYPE": 0, "CLASSIFICATION_TYPE": "U", "NORAD_CAT_ID": 41862, "ELEMENT_SET_NO": 999, "REV_AT_EPOCH": 5650, "BSTAR": 0, "MEAN_MOTION_DOT": -6e-08, "MEAN_MOTION_DDOT": 0}, "tle": {"line1": "1 41862U 16069D   25348.92542013 -.00000006  00000+0  00000+0 0  9996", "line2": "2 41862  55.3815 106.1855 0001423 290.4821  69.4663  1.70474813 56507"}}, "geometry": {"type": "Point", "coordinates": [-166.81127307236773, 55.35573168974822]}}, {"type": "Feature", "properties": {"norad_id": 42709, "name": "SES-15 (WAAS/PRN 133)", "group": "gnss", "lat": 0.03632123943511721, "lon": 43.251439141005534, "alt_km": 35788.23071397097, "timestamp": "2025-12-16T05:49:09.457307+00:00", "meta": {"OBJECT_NAME": "SES-15 (WAAS/PRN 133)", "OBJECT_ID": "2017-026A", "EPOCH": "2025-12-14T23:04:35.701248", "MEAN_MOTION": 1.00273624, "ECCENTRICITY": 7.276e-05, "INCLINATION": 0.0176, "RA_OF_ASC_NODE": 342.8918, "ARG_OF_PERICENTER": 215.1635, "MEAN_ANOMALY": 102.7985, "EPHEMERIS_TYPE": 0, "CLASSIFICATION_TYPE": "U", "NORAD_CAT_ID": 42709, "ELEMENT_SET_NO": 999, "REV_AT_EPOCH": 558, "BSTAR": 0, "MEAN_MOTION_DOT": 8e-07, "MEAN_MOTION_DDOT": 0}, "tle": {"line1": "1 42709U 17026A   25348.96152432  .00000080  00000+0  00000+0 0  9998", "line2": "2 42709   0.0176 342.8918 0000727 215.1635 102.7985  1.00273624  5587"}}, "geometry": {"type": "Point", "coordinates": [43.251439141005534, 0.03632123943511721]}}]}